[{"OBJECT_NAME":"BANDWAGON-2 OBJECT D","OBJECT_ID":"2024-247D","EPOCH":"2026-03-09T12:32:33.670752","MEAN_MOTION":15.29076102,"ECCENTRICITY":0.00034883,"INCLINATION":44.9954,"RA_OF_ASC_NODE":115.671,"ARG_OF_PERICENTER":351.1453,"MEAN_ANOMALY":8.9368,"EPHEMERIS_TYPE":0,"CLASSIFICATION_TYPE":"U","NORAD_CAT_ID":62380,"ELEMENT_SET_NO":999,"REV_AT_EPOCH":6773,"BSTAR":0.00040119131,"MEAN_MOTION_DOT":0.00011259,"MEAN_MOTION_DDOT":0},{"OBJECT_NAME":"STARLINK-35616","OBJECT_ID":"2025-245X","EPOCH":"2026-03-09T19:35:23.730432","MEAN_MOTION":15.30212716,"ECCENTRICITY":0.00014161,"INCLINATION":53.1574,"RA_OF_ASC_NODE":283.4641,"ARG_OF_PERICENTER":133.3081,"MEAN_ANOMALY":226.8038,"EPHEMERIS_TYPE":0,"CLASSIFICATION_TYPE":"U","NORAD_CAT_ID":66255,"ELEMENT_SET_NO":999,"REV_AT_EPOCH":2127,"BSTAR":0.00087700546,"MEAN_MOTION_DOT":0.00025715,"MEAN_MOTION_DDOT":0}]
